#dP2022  3 19  0  0  0.00000000      96 __u+U ITR00 FIT  IAC
## 2201 518400.00000000   900.00000000 59657 0.0000000000000
+  117   C06C07C08C09C10C11C12C13C14C16C19C20C21C22C23C24C25
+        C26C27C28C29C30C32C33C34C35C36C37C38C39C40C41C42C43
+        C44C45C46E01E02E03E04E05E07E08E10E11E12E13E14E15E18
+        E19E21E24E25E26E27E30E31E33E34E36G01G02G03G04G05G06
+        G07G08G09G10G11G12G13G14G15G16G17G18G19G20G21G22G23
+        G24G25G26G27G28G29G30G31G32J01J02J03R01R02R03R04R05
+        R07R08R09R11R12R13R14R15R17R18R19R20R21R22R24  0  0
++        12  9  8  9  8  9  8  8  7 12  7  9  6  7  7  4  6
++         6  8  5  7  7  8  7  7  8  6  8  8  7  9  7  6  8
++         7  6  6  5  5  6  7  6  6  7  5  6  4  7  7  7  7
++         6  6  6  5  6  6  6  5  7  6  6  6  7  5  5  7  6
++         5  5  6  5  6  5  7  7  7  5  6  5  5  7  6  5  6
++         6  5  6  6  5  6  5  5  6  8  9  7  6  8  7  8  5
++         6  7  5  0  8  7  7  6  7  6  7  8  6  9  7  0  0
%c M  cc GPS ccc cccc cccc cccc cccc ccccc ccccc ccccc ccccc
%c cc cc ccc ccc cccc cccc cccc cccc ccccc ccccc ccccc ccccc
%f  0.0000000  0.000000000  0.00000000000  0.000000000000000
%f  0.0000000  0.000000000  0.00000000000  0.000000000000000
%i    0    0    0    0      0      0      0      0         0
%i    0    0    0    0      0      0      0      0         0
/* INFORMATION & ANALYSIS CENTER (IAC)      ULTRA-RAPID DATA
/* S/V CLOCKS ARE ALIGNED TO GNSS TIME                      
/* G:C1WC2W R:C1PC2P E:C1XC5X C:C2IC6I J:C1CC2S             
/* PCV:IGS14_2196 OL/AL:FES2004  NONE     YN ORB:CoN CLK:CoN
*  2022 03 19 22 45  0.00000000
PC06  -7751.017461  23385.628080  34226.125029   -359.957269
PC07 -18075.780272  35931.138702 -12882.729429    114.066028
PC08  -2609.431952  37172.193331 -19571.080183    207.180749
PC09   4827.175152  26761.367737  32681.592007   -619.643281
PC10 -11556.189165  36111.285662 -18668.737693    138.480117
PC11 -23607.924945   2466.171348 -14630.072852    239.609925
PC12 -26127.278041  -9581.278203   2155.519503   -634.682060
PC13   3555.263651  40351.360983 -11102.777607    -84.960553
PC14 -22759.449624  13793.726582  -8465.933313    452.042188
PC16  -9247.932044  22390.965581  34661.701658    105.116517
PC19  19701.603007 -19732.319916   -781.715997    885.176350
PC20  22351.253703  -7062.257658  15139.711775   -851.066838
PC21 -11734.193519 -10646.467026 -22949.846956   -913.021321
PC22   5519.696149 -21463.441291 -16935.167481   -961.648571
PC23   2241.443175  27200.552151   5803.054943   -941.583835
PC24 -17031.929971  -4115.722223  21709.140784   -947.448930
PC25  -9633.577752  17642.109574  19338.082907   -763.440013
PC26 -14383.146387 -20721.548834  11963.055196    763.765895
PC27  21601.294719  14238.544914 -10506.242082    694.532480
PC28   4014.360239  16980.491337 -21777.368918     45.413492
PC29  16095.345934 -10305.095318  20329.626500    529.876192
PC30  27064.584261   2674.904619   6311.111683    495.449959
PC32  11777.431520  10641.950599  22971.979490   -967.685610
PC33 -19612.394508  19851.611246    758.759460   -968.139859
PC34 -26862.018428  -1995.875549  -7248.908894   -444.612496
PC35  -3584.751682 -16798.031750  21977.181835    189.788591
PC36  10314.115649 -16986.918770 -19576.144664   -949.383709
PC37  13426.962766  21811.339163 -11040.635036   -938.328361
PC38  -7829.719821  33502.210795 -24237.063650    219.135403
PC39 -16035.298238  20012.075163  33458.019794     34.879694
PC40 -24928.986768  31985.837402 -11848.518557    253.686283
PC41  -5809.957632  21654.226512  16671.447073   -959.631518
PC42 -22144.586640   6258.641046 -15750.529721   -939.827709
PC43 -16740.983194   9980.426329 -19970.646861   -935.079431
PC44 -21911.118348 -13591.383958  10613.680290    600.242107
PC45  -2465.577056 -27242.602364  -5593.920560    709.103644
PC46  16774.522827   2407.268381 -22168.498268   -226.609456
PE01  -8751.735109 -19725.388510  20260.766082   -600.024096
PE02   8872.682880  19559.258718 -20365.576854    287.336545
PE03  17156.867173  11137.876370  21392.828049   -539.121038
PE04 -28585.514471   2023.976432  -7402.861163   -988.162350
PE05  -4571.554125  17993.850261  23059.851860   -198.807533
PE07  23338.481338 -14278.276706 -11278.912316   -650.014008
PE08  28627.112474  -2418.667250   7110.242454   -497.966263
PE10 -19499.369654    869.697110 -22255.983903   -501.507793
PE11 -12317.873395  10474.464342 -24799.063969   4186.914387
PE12 -23256.018601  -8368.332736 -16267.743643   4705.204136
PE13  12816.328927  -9834.769059  24809.763904    427.406119
PE14 -27592.178527  10870.686463 -10944.934611  -1784.107809
PE15  23294.719991   8495.157284  16184.316416    756.787339
PE18  24386.383537  -3270.473871   2520.654394  -1664.460254
PE19 -14768.968337 -12362.766160 -22466.919340  -1595.587569
PE21   3980.674702 -28775.000716   5706.236156   -723.510541
PE24 -15775.709605  20782.745140  13932.819674   -514.552652
PE25  -4151.549976  28786.966871  -5468.797691   -567.391013
PE26  -5872.353956 -22697.551846  18072.101339   -931.801740
PE27  15225.033654 -21844.154270 -12950.393286   -256.953283
PE30  17297.826083   -845.252684 -24021.573032   -362.112422
PE31 -17418.353348   2099.777357  23840.247934   -493.783999
PE33 -19981.277502 -21739.703410   1959.573008   -458.415253
PE34  20133.292635  21628.685358  -1749.915357   -507.637797
PE36   5140.770333  22282.459702 -18798.126595   -347.662616
PG01  19608.270647  10227.362537  14681.957303    404.915382
PG02 -14251.840985 -21786.883137   5513.078418   -652.437092
PG03  15849.304081   -431.065594  21186.321230   -170.947417
PG04  26071.934980   1243.359037   5157.101609   -182.438241
PG05  -8790.826476 -15741.665739 -19613.779130    -75.272699
PG06  -1047.565726 -20267.973125  17158.647085    237.061452
PG07  14354.944459  -6030.651911 -21175.654072    316.836972
PG08  21374.524390   6989.005705 -14439.060002    -60.508897
PG09  24858.172794  -7604.959906  -5593.830381   -348.837201
PG10 -11472.520931  23667.340735  -2145.920798   -352.068570
PG11 -12161.015014 -23246.847060   4188.674034    -58.243833
PG12 -14502.192619  -4141.329246  21584.458109   -187.432682
PG13 -13812.830573 -13033.725245 -18788.032679    279.688889
PG14  13089.798233 -22864.233620  -3033.165060    -95.436066
PG15 -22381.764044  -5073.514366 -14044.682114    -75.500210
PG16   3820.902376  19169.819572 -18031.557928   -482.561178
PG17  13884.714479 -13438.295301  18678.222354    589.401253
PG18 -13979.985217   6074.389609 -21762.745653    215.944082
PG19   6061.374679 -14379.429030  21201.341167    133.225780
PG20  -3852.612251 -23090.104852 -12774.222353    516.227272
PG21  20519.478153  16506.629204   6185.537571    159.581918
PG22  -2313.770649  15396.505791  21910.891493    230.106057
PG23 -15944.724464  17031.354441 -12614.035820     -8.214971
PG24 -21208.203440 -12367.262392  10342.351611    266.425711
PG25 -17213.313835  10325.373157  16963.586328    300.599140
PG26  -3156.296788  25129.485435  -7538.518277    192.120703
PG27  10829.063962  12917.783219 -20825.149098    159.381597
PG28   8340.957452 -24682.468315   6266.655020    376.777419
PG29 -25954.259840   4080.673579  -4157.641556   -493.319710
PG30   8195.270616 -14472.601311 -20591.875206   -519.587466
PG31   2487.623436  21501.834892  14945.369310   -169.680141
PG32  -9737.076017  15174.066178  19576.783796    -88.094490
PJ01 -31883.684090  26990.394650  10643.132954    189.439120
PJ02 -30012.959610  26028.231008  19030.295363     -2.090460
PJ03 -27953.692871  16006.346785 -22617.701774     -1.070438
PR01  18102.428834  -2024.161746  17856.303563      7.301568
PR02  21502.724225 -13784.078156    103.703057    513.011097
PR03  11160.381439 -16388.321751 -16032.723547     53.386120
PR04  -5087.951518  -9561.071104 -23062.420760    132.690356
PR05 -18572.298449   2342.108965 -17300.052711     89.663803
PR07 -10420.752458  16250.369014  16689.562088     32.839258
PR08   5350.749124   9581.508295  23086.402285    -64.130907
PR09  -8943.594147  13062.782940  20037.282067     45.232212
PR11      0.000000      0.000000      0.000000 999999.999999
PR12  10966.779189   6635.658355 -22030.112399     17.504782
PR13   9109.497253 -11779.170569 -20732.684533    -19.680224
PR14   1572.626428 -24600.964586  -6527.822255     75.570597
PR15  -6515.661849 -22179.876970  10798.833357     97.429662
PR17   -351.679320 -11724.527938  22663.450482    510.884717
PR18 -15809.361645 -14941.957015  13286.758142    110.830646
PR19 -22662.449947 -11521.508286  -2056.665523   -182.194272
PR20 -16451.953155    701.141038 -19453.872625    -67.027467
PR21   1767.780033  12210.126530 -22322.806751   -286.640624
PR22  16489.449316  15010.497220 -12497.959346   -171.634684
PR24  16146.870673  -1894.058524  19670.499880     85.159321
EOF
